$$SOE
2460147.500000000, A.D. 2023-Jul-22 00:00:00.0000, 5.644667885356536E+09, 1.351929879491091E+07, -1.783038141551820E+09,
2460154.500000000, A.D. 2023-Jul-29 00:00:00.0000, 5.645339379042475E+09, 1.675975776428974E+07, -1.783598190585289E+09,
2460161.500000000, A.D. 2023-Aug-05 00:00:00.0000, 5.646009465349378E+09, 2.000018725610662E+07, -1.784157818813232E+09,
2460168.500000000, A.D. 2023-Aug-12 00:00:00.0000, 5.646678142372515E+09, 2.324058455024767E+07, -1.784717026129367E+09,
2460175.500000000, A.D. 2023-Aug-19 00:00:00.0000, 5.647345408512393E+09, 2.648094643856728E+07, -1.785275812457813E+09,
2460182.500000000, A.D. 2023-Aug-26 00:00:00.0000, 5.648011262475492E+09, 2.972126931488824E+07, -1.785834177746997E+09,
2460189.500000000, A.D. 2023-Sep-02 00:00:00.0000, 5.648675703252011E+09, 3.296154919368339E+07, -1.786392121968245E+09,
2460196.500000000, A.D. 2023-Sep-09 00:00:00.0000, 5.649338730107245E+09, 3.620178161622488E+07, -1.786949645125719E+09,
2460203.500000000, A.D. 2023-Sep-16 00:00:00.0000, 5.650000342754994E+09, 3.944196138619518E+07, -1.787506747297849E+09,
2460210.500000000, A.D. 2023-Sep-23 00:00:00.0000, 5.650660542129457E+09, 4.268208242154264E+07, -1.788063428724948E+09,
2460217.500000000, A.D. 2023-Sep-30 00:00:00.0000, 5.651319331415998E+09, 4.592213891329932E+07, -1.788619689814459E+09,
2460224.500000000, A.D. 2023-Oct-07 00:00:00.0000, 5.651976714987080E+09, 4.916212724854004E+07, -1.789175530892158E+09,
2460231.500000000, A.D. 2023-Oct-14 00:00:00.0000, 5.652632696283246E+09, 5.240204538431454E+07, -1.789730952065314E+09,
2460238.500000000, A.D. 2023-Oct-21 00:00:00.0000, 5.653287277867763E+09, 5.564189127526700E+07, -1.790285953362761E+09,
2460245.500000000, A.D. 2023-Oct-28 00:00:00.0000, 5.653940462230558E+09, 5.888166261507249E+07, -1.790840534836303E+09,
2460252.500000000, A.D. 2023-Nov-04 00:00:00.0000, 5.654592252091434E+09, 6.212135712129533E+07, -1.791394696571506E+09,
2460259.500000000, A.D. 2023-Nov-11 00:00:00.0000, 5.655242650380103E+09, 6.536097276379418E+07, -1.791948438672916E+09,
2460266.500000000, A.D. 2023-Nov-18 00:00:00.0000, 5.655891660112580E+09, 6.860050787236321E+07, -1.792501761248855E+09,
2460273.500000000, A.D. 2023-Nov-25 00:00:00.0000, 5.656539284236708E+09, 7.183996114617431E+07, -1.793054664400382E+09,
2460280.500000000, A.D. 2023-Dec-02 00:00:00.0000, 5.657185525475040E+09, 7.507933155382180E+07, -1.793607148217762E+09,
2460287.500000000, A.D. 2023-Dec-09 00:00:00.0000, 5.657830386242906E+09, 7.831861806505418E+07, -1.794159212796273E+09,
2460294.500000000, A.D. 2023-Dec-16 00:00:00.0000, 5.658473868929170E+09, 8.155781922676814E+07, -1.794710858296656E+09,
2460301.500000000, A.D. 2023-Dec-23 00:00:00.0000, 5.659115976888178E+09, 8.479693327069485E+07, -1.795262085026047E+09,
2460308.500000000, A.D. 2023-Dec-30 00:00:00.0000, 5.659756714802651E+09, 8.803595980204976E+07, -1.795812893330817E+09,
2460315.500000000, A.D. 2024-Jan-06 00:00:00.0000, 5.660396086645072E+09, 9.127490070841825E+07, -1.796363283331838E+09,
2460322.500000000, A.D. 2024-Jan-13 00:00:00.0000, 5.661034094410317E+09, 9.451375848197746E+07, -1.796913254941087E+09,
2460329.500000000, A.D. 2024-Jan-20 00:00:00.0000, 5.661670738843092E+09, 9.775253503963077E+07, -1.797462808019991E+09,
2460336.500000000, A.D. 2024-Jan-27 00:00:00.0000, 5.662306020131419E+09, 1.009912316932555E+08, -1.798011942440360E+09,
2460343.500000000, A.D. 2024-Feb-03 00:00:00.0000, 5.662939938137831E+09, 1.042298493214445E+08, -1.798560658086401E+09,
2460350.500000000, A.D. 2024-Feb-10 00:00:00.0000, 5.663572492445604E+09, 1.074683884516262E+08, -1.799108954847245E+09,
2460357.500000000, A.D. 2024-Feb-17 00:00:00.0000, 5.664203682358752E+09, 1.107068492604828E+08, -1.799656832612230E+09,
2460364.500000000, A.D. 2024-Feb-24 00:00:00.0000, 5.664833506891704E+09, 1.139452315074644E+08, -1.800204291271197E+09,
2460371.500000000, A.D. 2024-Mar-02 00:00:00.0000, 5.665461964778030E+09, 1.171835343688735E+08, -1.800751330725235E+09,
2460378.500000000, A.D. 2024-Mar-09 00:00:00.0000, 5.666089054637011E+09, 1.204217561096677E+08, -1.801297950925827E+09,
2460385.500000000, A.D. 2024-Mar-16 00:00:00.0000, 5.666714775693341E+09, 1.236598937902380E+08, -1.801844151962605E+09,
2460392.500000000, A.D. 2024-Mar-23 00:00:00.0000, 5.667339128946453E+09, 1.268979441172173E+08, -1.802389934099597E+09,
2460399.500000000, A.D. 2024-Mar-30 00:00:00.0000, 5.667962116548210E+09, 1.301359054115199E+08, -1.802935297556623E+09,
2460406.500000000, A.D. 2024-Apr-06 00:00:00.0000, 5.668583739645111E+09, 1.333737773259984E+08, -1.803480242334535E+09,
2460413.500000000, A.D. 2024-Apr-13 00:00:00.0000, 5.669203998236069E+09, 1.366115591491464E+08, -1.804024768341669E+09,
2460420.500000000, A.D. 2024-Apr-20 00:00:00.0000, 5.669822892093630E+09, 1.398492493715003E+08, -1.804568875515414E+09,
2460427.500000000, A.D. 2024-Apr-27 00:00:00.0000, 5.670440421231643E+09, 1.430868459533612E+08, -1.805112563845594E+09,
2460434.500000000, A.D. 2024-May-04 00:00:00.0000, 5.671056586007239E+09, 1.463243465905306E+08, -1.805655833365156E+09,
2460441.500000000, A.D. 2024-May-11 00:00:00.0000, 5.671671387095531E+09, 1.495617488764470E+08, -1.806198684138225E+09,
2460448.500000000, A.D. 2024-May-18 00:00:00.0000, 5.672284825418953E+09, 1.527990503826053E+08, -1.806741116251161E+09,
2460455.500000000, A.D. 2024-May-25 00:00:00.0000, 5.672896902056008E+09, 1.560362486504616E+08, -1.807283129809271E+09,
2460462.500000000, A.D. 2024-Jun-01 00:00:00.0000, 5.673507618189241E+09, 1.592733410377191E+08, -1.807824724949148E+09,
2460469.500000000, A.D. 2024-Jun-08 00:00:00.0000, 5.674116975338811E+09, 1.625103243963518E+08, -1.808365901890864E+09,
2460476.500000000, A.D. 2024-Jun-15 00:00:00.0000, 5.674724976281190E+09, 1.657471951277282E+08, -1.808906661021852E+09,
2460483.500000000, A.D. 2024-Jun-22 00:00:00.0000, 5.675331625647740E+09, 1.689839507902166E+08, -1.809447002823965E+09,
2460490.500000000, A.D. 2024-Jun-29 00:00:00.0000, 5.675936928081588E+09, 1.722205914386548E+08, -1.809986927597665E+09,
2460497.500000000, A.D. 2024-Jul-06 00:00:00.0000, 5.676540886597748E+09, 1.754571182247208E+08, -1.810526435427653E+09,
2460504.500000000, A.D. 2024-Jul-13 00:00:00.0000, 5.677143503095791E+09, 1.786935320823982E+08, -1.811065526337806E+09,
2460511.500000000, A.D. 2024-Jul-20 00:00:00.0000, 5.677744779039366E+09, 1.819298336472738E+08, -1.811604200359302E+09,
2460518.500000000, A.D. 2024-Jul-27 00:00:00.0000, 5.678344715646611E+09, 1.851660234502659E+08, -1.812142457530182E+09,
2460525.500000000, A.D. 2024-Aug-03 00:00:00.0000, 5.678943313864366E+09, 1.884021020109164E+08, -1.812680297882079E+09,
2460532.500000000, A.D. 2024-Aug-10 00:00:00.0000, 5.679540574291955E+09, 1.916380698259935E+08, -1.813217721429827E+09,
2460539.500000000, A.D. 2024-Aug-17 00:00:00.0000, 5.680136497101903E+09, 1.948739272754141E+08, -1.813754728166729E+09,
2460546.500000000, A.D. 2024-Aug-24 00:00:00.0000, 5.680731081985375E+09, 1.981096744235927E+08, -1.814291318070060E+09,
2460553.500000000, A.D. 2024-Aug-31 00:00:00.0000, 5.681324328237998E+09, 2.013453106551052E+08, -1.814827491132725E+09,
2460560.500000000, A.D. 2024-Sep-07 00:00:00.0000, 5.681916235351550E+09, 2.045808342713890E+08, -1.815363247444506E+09,
2460567.500000000, A.D. 2024-Sep-14 00:00:00.0000, 5.682506804196740E+09, 2.078162430446595E+08, -1.815898587249596E+09,
2460574.500000000, A.D. 2024-Sep-21 00:00:00.0000, 5.683096036768309E+09, 2.110515361418561E+08, -1.816433510760821E+09,
2460581.500000000, A.D. 2024-Sep-28 00:00:00.0000, 5.683683934004879E+09, 2.142867141911453E+08, -1.816968017949799E+09,
2460588.500000000, A.D. 2024-Oct-05 00:00:00.0000, 5.684270495353326E+09, 2.175217774927880E+08, -1.817502108649608E+09,
2460595.500000000, A.D. 2024-Oct-12 00:00:00.0000, 5.684855719716993E+09, 2.207567253546025E+08, -1.818035782693482E+09,
2460602.500000000, A.D. 2024-Oct-19 00:00:00.0000, 5.685439606036872E+09, 2.239915562813525E+08, -1.818569039951083E+09,
2460609.500000000, A.D. 2024-Oct-26 00:00:00.0000, 5.686022153473374E+09, 2.272262682168516E+08, -1.819101880324917E+09,
2460616.500000000, A.D. 2024-Nov-02 00:00:00.0000, 5.686603361446156E+09, 2.304608586906384E+08, -1.819634303742599E+09,
2460623.500000000, A.D. 2024-Nov-09 00:00:00.0000, 5.687183229628715E+09, 2.336953248902011E+08, -1.820166310152124E+09,
2460630.500000000, A.D. 2024-Nov-16 00:00:00.0000, 5.687761757923829E+09, 2.369296636593122E+08, -1.820697899522428E+09,
2460637.500000000, A.D. 2024-Nov-23 00:00:00.0000, 5.688338946466886E+09, 2.401638713728514E+08, -1.821229071857580E+09,
2460644.500000000, A.D. 2024-Nov-30 00:00:00.0000, 5.688914795865590E+09, 2.433979436457343E+08, -1.821759827247096E+09,
2460651.500000000, A.D. 2024-Dec-07 00:00:00.0000, 5.689489308095535E+09, 2.466318752967845E+08, -1.822290165956378E+09,
2460658.500000000, A.D. 2024-Dec-14 00:00:00.0000, 5.690062487363143E+09, 2.498656617917064E+08, -1.822820088393968E+09,
2460665.500000000, A.D. 2024-Dec-21 00:00:00.0000, 5.690634338617468E+09, 2.530993009245182E+08, -1.823349594844209E+09,
2460672.500000000, A.D. 2024-Dec-28 00:00:00.0000, 5.691204865683401E+09, 2.563327917702096E+08, -1.823878685388540E+09,
2460679.500000000, A.D. 2025-Jan-04 00:00:00.0000, 5.691774071613542E+09, 2.595661332848616E+08, -1.824407360059268E+09,
2460686.500000000, A.D. 2025-Jan-11 00:00:00.0000, 5.692341959437586E+09, 2.627993242131147E+08, -1.824935618922882E+09,
2460693.500000000, A.D. 2025-Jan-18 00:00:00.0000, 5.692908532392419E+09, 2.660323633842083E+08, -1.825463462083654E+09,
2460700.500000000, A.D. 2025-Jan-25 00:00:00.0000, 5.693473793876498E+09, 2.692652499220588E+08, -1.825990889668356E+09,
2460707.500000000, A.D. 2025-Feb-01 00:00:00.0000, 5.694037747318217E+09, 2.724979833392496E+08, -1.826517901811701E+09,
2460714.500000000, A.D. 2025-Feb-08 00:00:00.0000, 5.694600396016722E+09, 2.757305635345931E+08, -1.827044498645985E+09,
$$EOE